[{"OBJECT_NAME":"FLORIPASAT-1","OBJECT_ID":"2019-093G","EPOCH":"2026-03-09T23:35:55.317696","MEAN_MOTION":15.02721611,"ECCENTRICITY":0.00131238,"INCLINATION":97.7908,"RA_OF_ASC_NODE":162.596,"ARG_OF_PERICENTER":52.6692,"MEAN_ANOMALY":307.5727,"EPHEMERIS_TYPE":0,"CLASSIFICATION_TYPE":"U","NORAD_CAT_ID":44885,"ELEMENT_SET_NO":999,"REV_AT_EPOCH":33774,"BSTAR":0.00066057159,"MEAN_MOTION_DOT":8.782e-5,"MEAN_MOTION_DDOT":0},{"OBJECT_NAME":"STARLINK-36200","OBJECT_ID":"2025-298AC","EPOCH":"2026-03-09T22:00:01.999584","MEAN_MOTION":14.98359117,"ECCENTRICITY":0.00021382,"INCLINATION":70.0008,"RA_OF_ASC_NODE":14.0348,"ARG_OF_PERICENTER":265.8327,"MEAN_ANOMALY":236.4744,"EPHEMERIS_TYPE":0,"CLASSIFICATION_TYPE":"U","NORAD_CAT_ID":67101,"ELEMENT_SET_NO":999,"REV_AT_EPOCH":590,"BSTAR":-0.0019755868,"MEAN_MOTION_DOT":-0.00023603,"MEAN_MOTION_DDOT":0}]
